NORAD_CAT_ID,OBJECT_NAME,OBJECT_TYPE,EPOCH,MEAN_MOTION,ECCENTRICITY,INCLINATION,RA_OF_ASC_NODE,ARG_OF_PERICENTER,MEAN_ANOMALY,BSTAR,MEAN_MOTION_DOT,MEAN_MOTION_DDOT,TLE_LINE0,TLE_LINE1,TLE_LINE2,SEMIMAJOR_AXIS,PERIOD,APOGEE,PERIGEE,DECAYED
53608.0,STARLINK-4647,PAYLOAD,2023-05-13 09:45:58,15.08847609,9.97e-05,53.2144,183.9217,76.1452,283.9651,0.00018645,2.681e-05,0.0,0 STARLINK-4647,1 53608U 22104W   23133.40693062  .00002681  00000-0  18645-3 0  9997,2 53608  53.2144 183.9217 0000997  76.1452 283.9651 15.08847609 39941,6917.857,95.437,540.412,539.032,0.0
53608.0,STARLINK-4647,PAYLOAD,2023-05-13 20:53:40,15.08843879,9.91e-05,53.2141,181.8397,75.991,284.1192,0.00010433,1.373e-05,0.0,0 STARLINK-4647,1 53608U 22104W   23133.87061122  .00001373  00000-0  10433-3 0  9998,2 53608  53.2141 181.8397 0000991  75.9910 284.1192 15.08843879 40012,6917.869,95.437,540.419,539.048,0.0
53608.0,STARLINK-4647,PAYLOAD,2023-05-14 06:26:00,15.08833603,0.0001083,53.2148,180.0569,72.9987,287.1124,-1.0403e-05,-4.53e-06,0.0,0 STARLINK-4647,1 53608U 22104W   23134.26805766 -.00000453  00000-0 -10403-4 0  9990,2 53608  53.2148 180.0569 0001083  72.9987 287.1124 15.08833603 39509,6917.9,95.438,540.514,539.016,0.0
53608.0,STARLINK-4647,PAYLOAD,2023-05-14 11:12:09,15.08838971,0.0001062,53.2152,179.1649,70.4178,289.6928,-2.6848e-05,-7.15e-06,0.0,0 STARLINK-4647,1 53608U 22104W   23134.46677743 -.00000715  00000-0 -26848-4 0  9995,2 53608  53.2152 179.1649 0001062  70.4178 289.6928 15.08838971 40104,6917.884,95.438,540.483,539.014,0.0
53608.0,STARLINK-4647,PAYLOAD,2023-05-14 14:22:55,15.08839765,0.000112,53.2153,178.5696,73.7619,286.3496,3.7833e-05,3.14e-06,0.0,0 STARLINK-4647,1 53608U 22104W   23134.59925485  .00000314  00000-0  37833-4 0  9997,2 53608  53.2153 178.5696 0001120  73.7619 286.3496 15.08839765 40129,6917.881,95.438,540.521,538.971,0.0
53608.0,STARLINK-4647,PAYLOAD,2023-05-15 11:02:56,15.0884561,8.56e-05,53.215,174.7017,97.6409,262.468,-3.6616e-05,-8.7e-06,0.0,0 STARLINK-4647,1 53608U 22104W   23135.46037206 -.00000870  00000-0 -36616-4 0  9996,2 53608  53.2150 174.7017 0000856  97.6409 262.4680 15.08845610 39683,6917.863,95.437,540.32,539.136,0.0
53608.0,STARLINK-4647,PAYLOAD,2023-05-16 06:07:34,15.08832395,0.0001075,53.2149,171.1333,86.0868,274.0247,7.6412e-05,9.28e-06,0.0,0 STARLINK-4647,1 53608U 22104W   23136.25525963  .00000928  00000-0  76412-4 0  9996,2 53608  53.2149 171.1333 0001075  86.0868 274.0247 15.08832395 39806,6917.904,95.438,540.512,539.025,0.0
53608.0,STARLINK-4647,PAYLOAD,2023-05-16 09:18:20,15.08834022,0.0001104,53.2152,170.5396,88.5061,271.6058,9.2252e-05,1.18e-05,0.0,0 STARLINK-4647,1 53608U 22104W   23136.38773888  .00001180  00000-0  92252-4 0  9992,2 53608  53.2152 170.5396 0001104  88.5061 271.6058 15.08834022 40395,6917.899,95.438,540.527,539.0,0.0
53608.0,STARLINK-4647,PAYLOAD,2023-05-16 18:50:39,15.08836378,0.0001085,53.2151,168.7555,87.4673,272.6443,5.276e-05,5.52e-06,0.0,0 STARLINK-4647,1 53608U 22104W   23136.78517912  .00000552  00000-0  52760-4 0  9992,2 53608  53.2151 168.7555 0001085  87.4673 272.6443 15.08836378 40457,6917.891,95.438,540.507,539.006,0.0
53608.0,STARLINK-4647,PAYLOAD,2023-05-17 07:33:44,15.08836865,0.0001059,53.2153,166.3771,87.4292,272.6821,6.3021e-05,7.15e-06,0.0,0 STARLINK-4647,1 53608U 22104W   23137.31509963  .00000715  00000-0  63021-4 0  9992,2 53608  53.2153 166.3771 0001059  87.4292 272.6821 15.08836865 39966,6917.89,95.438,540.488,539.022,0.0
53608.0,STARLINK-4647,PAYLOAD,2023-05-17 18:41:26,15.08837565,0.0001075,53.2151,164.295,86.107,274.0046,3.8758e-05,3.29e-06,0.0,0 STARLINK-4647,1 53608U 22104W   23137.77878052  .00000329  00000-0  38758-4 0  9990,2 53608  53.2151 164.2950 0001075  86.1070 274.0046 15.08837565 40604,6917.888,95.438,540.497,539.009,0.0
53608.0,STARLINK-4647,PAYLOAD,2023-05-18 08:59:54,15.0883715,0.0001057,53.2152,161.6182,90.1406,269.9707,3.4056e-05,2.54e-06,0.0,0 STARLINK-4647,1 53608U 22104W   23138.37494148  .00000254  00000-0  34056-4 0  9991,2 53608  53.2152 161.6182 0001057  90.1406 269.9707 15.08837150 40125,6917.889,95.438,540.485,539.023,0.0
53608.0,STARLINK-4647,PAYLOAD,2023-05-18 18:32:13,15.08837936,0.0001057,53.2152,159.834,85.8219,274.2894,4.1753e-05,3.77e-06,0.0,0 STARLINK-4647,1 53608U 22104W   23138.77238128  .00000377  00000-0  41753-4 0  9997,2 53608  53.2152 159.8340 0001057  85.8219 274.2894 15.08837936 40750,6917.887,95.438,540.483,539.02,0.0
53608.0,STARLINK-4647,PAYLOAD,2023-05-19 18:23:00,15.08839039,0.0001065,53.2151,155.3731,83.9858,276.1256,4.4135e-05,4.15e-06,0.0,0 STARLINK-4647,1 53608U 22104W   23139.76598171  .00000415  00000-0  44135-4 0  9994,2 53608  53.2151 155.3731 0001065  83.9858 276.1256 15.08839039 40334,6917.883,95.438,540.485,539.012,0.0
53608.0,STARLINK-4647,PAYLOAD,2023-05-20 18:13:47,15.0884474,0.0001079,53.2152,150.9122,82.9076,277.2039,8.3692e-05,1.045e-05,0.0,0 STARLINK-4647,1 53608U 22104W   23140.75957666  .00001045  00000-0  83692-4 0  9994,2 53608  53.2152 150.9122 0001079  82.9076 277.2039 15.08844740 41052,6917.866,95.437,540.477,538.984,0.0
53608.0,STARLINK-4647,PAYLOAD,2023-05-21 00:35:19,15.08844012,0.0001084,53.2153,149.7227,83.1331,276.9784,8.6173e-05,1.084e-05,0.0,0 STARLINK-4647,1 53608U 22104W   23141.02453640  .00001084  00000-0  86173-4 0  9998,2 53608  53.2153 149.7227 0001084  83.1331 276.9784 15.08844012 40524,6917.868,95.437,540.483,538.983,0.0
53608.0,STARLINK-4647,PAYLOAD,2023-05-21 06:56:52,15.08846077,0.0001079,53.2151,148.5333,82.9531,277.1583,9.9218e-05,1.292e-05,0.0,0 STARLINK-4647,1 53608U 22104W   23141.28949426  .00001292  00000-0  99218-4 0  9993,2 53608  53.2151 148.5333 0001079  82.9531 277.1583 15.08846077 41131,6917.862,95.437,540.473,538.98,0.0
53608.0,STARLINK-4647,PAYLOAD,2023-05-21 18:04:34,15.08842413,9.92e-05,53.2147,146.4517,82.5025,277.608,4.9327e-05,4.97e-06,0.0,0 STARLINK-4647,1 53608U 22104W   23141.75317673  .00000497  00000-0  49327-4 0  9990,2 53608  53.2147 146.4517 0000992  82.5025 277.6080 15.08842413 41209,6917.873,95.437,540.424,539.052,0.0
53608.0,STARLINK-4647,PAYLOAD,2023-05-22 06:47:40,15.08836561,0.0001072,53.2156,144.0726,87.3931,272.7184,-2.3165e-05,-6.56e-06,0.0,0 STARLINK-4647,1 53608U 22104W   23142.28310310 -.00000656  00000-0 -23165-4 0  9991,2 53608  53.2156 144.0726 0001072  87.3931 272.7184 15.08836561 40717,6917.891,95.438,540.497,539.014,0.0
53608.0,STARLINK-4647,PAYLOAD,2023-05-23 09:49:13,15.0883955,0.0001129,53.2163,139.018,91.1839,268.9282,8.4134e-06,-1.54e-06,0.0,0 STARLINK-4647,1 53608U 22104W   23143.40918121 -.00000154  00000-0  84134-5 0  9996,2 53608  53.2163 139.0180 0001129  91.1839 268.9282 15.08839550 40881,6917.882,95.438,540.528,538.966,0.0
53608.0,STARLINK-4647,PAYLOAD,2023-05-23 16:10:46,15.08836164,0.0001141,53.2164,137.8283,90.3151,269.7972,5.8915e-06,-1.94e-06,0.0,0 STARLINK-4647,1 53608U 22104W   23143.67414383 -.00000194  00000-0  58915-5 0  9998,2 53608  53.2164 137.8283 0001141  90.3151 269.7972 15.08836164 41495,6917.892,95.438,540.546,538.968,0.0
53608.0,STARLINK-4647,PAYLOAD,2023-05-24 06:29:14,15.0883598,0.0001065,53.2159,135.1518,88.974,271.1375,7.656e-05,9.31e-06,0.0,0 STARLINK-4647,1 53608U 22104W   23144.27030357  .00000931  00000-0  76560-4 0  9993,2 53608  53.2159 135.1518 0001065  88.9740 271.1375 15.08835980 41582,6917.893,95.438,540.494,539.021,0.0
53608.0,STARLINK-4647,PAYLOAD,2023-05-26 04:35:25,15.08838667,0.0001092,53.2159,126.5298,98.1391,261.9725,4.6697e-05,4.55e-06,0.0,0 STARLINK-4647,1 53608U 22104W   23146.19126760  .00000455  00000-0  46697-4 0  9999,2 53608  53.2159 126.5298 0001092  98.1391 261.9725 15.08838667 41307,6917.884,95.438,540.505,538.994,0.0
53608.0,STARLINK-4647,PAYLOAD,2023-05-26 06:10:48,15.08839055,0.0001063,53.2156,126.2322,96.8501,263.2613,4.8783e-05,4.89e-06,0.0,0 STARLINK-4647,1 53608U 22104W   23146.25750730  .00000489  00000-0  48783-4 0  9991,2 53608  53.2156 126.2322 0001063  96.8501 263.2613 15.08839055 41881,6917.883,95.438,540.484,539.013,0.0
53608.0,STARLINK-4647,PAYLOAD,2023-05-26 22:04:40,15.08837706,0.0001077,53.2159,123.2577,94.8961,265.2155,3.8023e-05,3.17e-06,0.0,0 STARLINK-4647,1 53608U 22104W   23146.91990938  .00000317  00000-0  38023-4 0  9996,2 53608  53.2159 123.2577 0001077  94.8961 265.2155 15.08837706 41981,6917.887,95.438,540.497,539.007,0.0
53608.0,STARLINK-4647,PAYLOAD,2023-05-27 07:36:59,15.08838072,0.0001119,53.2163,121.473,86.5565,273.5555,2.6974e-05,1.41e-06,0.0,0 STARLINK-4647,1 53608U 22104W   23147.31735060  .00000141  00000-0  26974-4 0  9991,2 53608  53.2163 121.4730 0001119  86.5565 273.5555 15.08838072 41479,6917.886,95.438,540.525,538.977,0.0
53608.0,STARLINK-4647,PAYLOAD,2023-05-27 15:33:54,15.08838427,0.0001139,53.2166,119.9863,87.2153,272.897,3.5819e-05,2.82e-06,0.0,0 STARLINK-4647,1 53608U 22104W   23147.64855048  .00000282  00000-0  35819-4 0  9990,2 53608  53.2166 119.9863 0001139  87.2153 272.8970 15.08838427 42090,6917.885,95.438,540.538,538.962,0.0
53608.0,STARLINK-4647,PAYLOAD,2023-05-28 04:16:59,15.08843799,0.000114,53.2162,117.6067,89.7594,270.3528,7.2621e-05,8.68e-06,0.0,0 STARLINK-4647,1 53608U 22104W   23148.17846597  .00000868  00000-0  72621-4 0  9990,2 53608  53.2162 117.6067 0001140  89.7594 270.3528 15.08843799 42174,6917.869,95.437,540.522,538.945,0.0
53608.0,STARLINK-4647,PAYLOAD,2023-05-28 07:27:45,15.08844531,0.0001149,53.2162,117.012,89.7258,270.3866,7.7149e-05,9.4e-06,0.0,0 STARLINK-4647,1 53608U 22104W   23148.31094510  .00000940  00000-0  77149-4 0  9997,2 53608  53.2162 117.0120 0001149  89.7258 270.3866 15.08844531 41623,6917.867,95.437,540.526,538.937,0.0
53608.0,STARLINK-4647,PAYLOAD,2023-05-28 15:24:41,15.08840243,0.0001143,53.2162,115.5247,90.7571,269.3552,4.8157e-05,4.79e-06,0.0,0 STARLINK-4647,1 53608U 22104W   23148.64214826  .00000479  00000-0  48157-4 0  9991,2 53608  53.2162 115.5247 0001143  90.7571 269.3552 15.08840243 42245,6917.88,95.438,540.535,538.954,0.0
